StationId,Latitude,Longitude,Elevation,Name,CountryCode,City,CityDistance
US10ceda014,42.3951,-97.0319,438.0,LAUREL 3.9 ESE,US,Concord,3.7368467550771287
US10dixo001,42.4273,-96.9774,463.0,WAYNE 13.7 NNE,US,Concord,4.918945656087495
US10doug025,41.3639,-96.1558,352.3,BENNINGTON 0.1 ESE,US,Washington,5.707572766032891
US10doug051,41.3553,-96.2138,341.1,BENNINGTON 3.0 W,US,Washington,4.733762128676225
US10doug054,41.3121,-96.1779,341.4,OMAHA 13.1 WNW,US,Washington,9.820841809906971
US10wash003,41.4692,-96.1369,378.9,BLAIR 5.2 S,US,Washington,9.895897223638872
US10wash012,41.4776,-96.2016,368.2,KENNARD 0.3 NNE,US,Washington,8.908723645493716
US1ALJF0054,33.4497,-87.0179,161.5,HUEYTOWN 1.4 NW,US,Concord,2.788915128520208
US1ALJF0068,33.4507,-87.1294,130.8,BESSEMER 11.1 WNW,US,Concord,8.571219598701399
US1ALJF0069,33.4658,-87.0249,181.1,CONCORD 0.4 ESE,US,Concord,1.3383407972932393
US1ALWX0002,32.0166,-87.2904,79.9,CAMDEN 1.0 NNE,US,Camden,1.8651240806190676
US1ARHM0007,33.7265,-93.6129,106.4,HOPE 4.2 NNW,US,Washington,8.31264413825307
US1AROC0002,33.589,-92.8625,51.5,CAMDEN 1.8 NNW,US,Camden,2.831691057705598
US1AROC0007,33.5961,-92.9051,86.0,CAMDEN 4.0 WNW,US,Camden,6.292413916754172
US1AROC0008,33.4915,-92.8172,58.8,CAMDEN 5.4 SSE,US,Camden,8.85046044564709
US1AROC0014,33.5965,-92.8699,49.4,CAMDEN 2.5 NW,US,Camden,3.9030137306742776
US1DCDC0001,38.9171,-76.9626,17.1,WASHINGTON 3.0 ENE,US,Washington,4.846576393817193
US1DCDC0002,38.9574,-77.0337,85.0,WASHINGTON 3.7 NNW,US,Washington,6.050168911974759
US1DCDC0003,38.9377,-77.0991,91.1,WASHINGTON 5.0 WNW,US,Washington,8.048273301643608
US1DCDC0006,38.8928,-76.9834,21.9,WASHINGTON 2.0 ESE,US,Washington,3.139574730859496
US1DCDC0007,38.8943,-76.9982,25.0,WASHINGTON 1.2 SE,US,Washington,1.9469715693644123
US1DCDC0008,38.8901,-76.9854,27.1,WASHINGTON 2.0 ESE,US,Washington,3.1283044971277265
US1DCDC0009,38.8766,-77.0224,3.0,WASHINGTON 2.0 SSW,US,Washington,3.1688654581356985
US1DCDC0010,38.9773,-77.0245,88.1,WASHINGTON 5.0 N,US,Washington,8.103842989473558
US1DCDC0011,38.9303,-77.0831,81.4,WASHINGTON 4.0 WNW,US,Washington,6.442245321147931
US1DCDC0014,38.9581,-77.0817,106.4,WASHINGTON 5.1 NW,US,Washington,8.201168949619554
US1DCDC0015,38.9203,-77.0456,50.6,WASHINGTON 1.9 WNW,US,Washington,3.0717425424691847
US1DCDC0019,38.8958,-77.037,9.1,THE WHITE HOUSE,US,Washington,2.0464955785510206
US1DCDC0026,38.9327,-76.9835,43.9,WASHINGTON 2.6 NE,US,Washington,4.212589477995617
US1DCDC0031,38.9436,-76.988,36.9,WASHINGTON 3.1 NNE,US,Washington,4.970237744085747
US1DCDC0034,38.9258,-77.0408,57.3,WASHINGTON 1.9 NW,US,Washington,3.161932245779126
US1DCDC0040,38.8965,-76.9769,8.2,WASHINGTON 2.2 ESE,US,Washington,3.529331476919683
US1DEKN0001,39.0326,-75.5169,9.8,FELTON 3.6 NE,US,Camden,8.158374628490568
US1DEKN0007,39.0907,-75.5123,13.1,MAGNOLIA 2.4 NW,US,Camden,3.974814157852392
US1DEKN0009,39.1297,-75.6125,18.3,DOVER 5.1 WSW,US,Camden,5.873505994014495
US1DEKN0012,39.0841,-75.4922,8.5,CAMDEN 3.7 ESE,US,Camden,5.8409548710600205
US1DEKN0015,39.1746,-75.5132,7.9,DOVER 1.1 NNE,US,Camden,9.219666225416669
US1DEKN0019,39.0722,-75.576,13.7,WYOMING 3.2 SSW,US,Camden,3.3972859505637145
US1DEKN0021,39.0784,-75.5292,13.7,MAGNOLIA 2.9 WNW,US,Camden,3.323419251930441
US1DEKN0024,39.0098,-75.5712,17.4,FELTON 0.4 E,US,Camden,9.99303288378401
US1DEKN0025,39.0725,-75.5478,16.5,WOODSIDE 1.1 E,US,Camden,3.0540359861265767
US1DEKN0026,39.0305,-75.5439,15.8,FELTON 2.4 NE,US,Camden,7.701635934437502
US1DEKN0028,39.0518,-75.4654,7.9,MAGNOLIA 1.4 SSE,US,Camden,9.497641526637114
US1DEKN0031,39.1611,-75.5179,4.3,DOVER 0.2 N,US,Camden,7.688595811763468
US1DEKN0032,39.151,-75.5201,8.5,DOVER 0.5 SSW,US,Camden,6.604541147720946
US1DEKN0036,39.0254,-75.6017,18.0,FELTON 1.7 NW,US,Camden,9.04460625296698
US1DEKN0037,39.1035,-75.4862,5.5,MAGNOLIA 2.4 NNW,US,Camden,6.138452341226502
US1Dixo4219,42.3226,-96.9829,421.8,CONCORD 4.23 S,US,Concord,6.834655161172181
US1FLOR0004,28.5824,-81.3086,34.1,WINTER PARK 2.3 ESE,US,Winter Park,3.9303489622787913
US1FLOR0009,28.5858,-81.3109,27.1,WINTER PARK 2.1 ESE,US,Winter Park,3.5626251260632635
US1FLOR0026,28.5722,-81.3958,30.2,ORLANDO 4.8 NNW,US,Winter Park,5.847943588308751
US1FLOR0027,28.5743,-81.3851,31.1,ORLANDO 4.9 N,US,Winter Park,4.840468814855914
US1FLOR0028,28.5443,-81.357,30.2,ORLANDO 2.9 NNE,US,Winter Park,6.198581067964792
US1FLOR0065,28.5371,-81.295,29.3,ORLANDO 5.3 ENE,US,Winter Park,8.384964493538703
US1FLSM0013,28.6134,-81.2854,25.6,WINTER PARK 3.7 ENE,US,Winter Park,5.962287902754504
US1FLSM0027,28.6462,-81.3805,41.1,ALTAMONTE SPRINGS 1.4 SE,US,Winter Park,6.341621846136689
US1FLSM0035,28.6548,-81.2865,26.2,CASSELBERRY 2.3 ESE,US,Winter Park,8.387587881073076
US1FLSM0036,28.6172,-81.2667,21.3,OVIEDO 5.9 WSW,US,Winter Park,7.834408857095361
US1FLSM0044,28.6401,-81.3493,27.7,MAITLAND 1.4 NE,US,Winter Park,4.608197980987239
US1FLSM0051,28.6419,-81.3247,23.8,CASSELBERRY 1.5 S,US,Winter Park,5.146299443193983
US1FLSM0052,28.6664,-81.2928,18.9,CASSELBERRY 1.9 E,US,Winter Park,9.027733378376425
US1FLSM0054,28.6147,-81.2879,27.1,WINTER PARK 3.6 ENE,US,Winter Park,5.770033466269216
US1GAPG0001,33.942,-84.7431,343.2,DALLAS 5.3 ENE,US,Dallas,9.56394808262406
US1GAPG0003,33.9554,-84.8314,262.1,DALLAS 2.5 N,US,Dallas,4.568008725029529
US1GAPG0005,33.8988,-84.7553,312.1,HIRAM 2.6 NNE,US,Dallas,8.170355213523917
US1GAPG0022,33.9451,-84.7502,335.6,DALLAS 5.0 ENE,US,Dallas,9.064365798381807
US1GAPK0002,33.1017,-84.3464,257.9,ZEBULON 0.3 WNW,US,Concord,8.669677556616033
US1GAPK0005,33.1011,-84.3441,260.3,ZEBULON 0.1 WNW,US,Concord,8.87412826230483
US1GATH0005,30.8403,-83.8033,59.7,BOSTON 3.4 NNW,US,Boston,5.52105709633496
US1GAWS0001,33.6994,-82.6717,167.0,WASHINGTON 4.8 ESE,US,Washington,7.688621264620405
US1GAWS0003,33.7533,-82.7181,176.5,WASHINGTON 1.9 NE,US,Washington,3.0081712417223305
US1IAWS0008,41.2411,-91.7715,218.2,WASHINGTON 5.8 SW,US,Washington,9.134216509416696
US1ILCK0064,41.5577,-87.6594,196.0,HOMEWOOD 0.1 ESE,US,Phoenix,6.468860697168968
US1ILCK0076,41.5345,-87.6646,206.0,FLOSSMOOR 1.1 ESE,US,Phoenix,9.043556567642012
US1ILCK0082,41.6598,-87.5529,178.0,BURNHAM-HEGEWISCH 1.6 NNW,US,Phoenix,8.390392731577474
US1ILCK0116,41.673,-87.6887,196.9,BLUE ISLAND 1.1 NNW,US,Phoenix,8.334169194889778
US1ILCK0146,41.5405,-87.5886,188.7,GLENWOOD 1.5 ESE,US,Phoenix,8.670548631254363
US1ILCK0170,41.5341,-87.6905,210.0,FLOSSMOOR 0.5 SW,US,Phoenix,9.965451495335884
US1ILCK0229,41.5319,-87.6641,202.1,FLOSSMOOR 1.2 ESE,US,Phoenix,9.30632058996278
US1ILCK0249,41.6243,-87.7233,189.3,MIDLOTHIAN 0.2 SSE,US,Phoenix,7.813961755171336
US1ILCK0250,41.6294,-87.7231,188.4,MIDLOTHIAN 0.2 NNE,US,Phoenix,7.918079546914249
US1ILCK0253,41.625,-87.7234,189.3,MIDLOTHIAN 0.1 SSE,US,Phoenix,7.83630641956864
US1ILCK0260,41.613,-87.7097,187.5,MIDLOTHIAN 1.2 SE,US,Phoenix,6.560737869678052
US1ILCK0261,41.6248,-87.7307,192.0,MIDLOTHIAN 0.3 WSW,US,Phoenix,8.42933486439822
US1ILCK0262,41.6215,-87.7331,192.3,MIDLOTHIAN 0.6 SW,US,Phoenix,8.572314172072847
US1ILCK0266,41.6238,-87.727,190.2,MIDLOTHIAN 0.2 SW,US,Phoenix,8.107510008923322
US1ILCK0296,41.5428,-87.6541,196.0,CHICAGO HEIGHTS 2.4 NNW,US,Phoenix,7.9134536517677745
US1ILCK0306,41.6155,-87.7507,199.3,OAK FOREST 0.6 N,US,Phoenix,9.976224590201248
US1ILCK0390,41.6726,-87.7181,182.0,ALSIP 0.9 E,US,Phoenix,9.916258870080243
US1ILTZ0023,40.7157,-89.4123,238.7,WASHINGTON 1.7 NE,US,Washington,2.1819670179030304
US1ILTZ0034,40.7188,-89.342,230.7,EUREKA 3.5 W,US,Washington,7.904649265658967
US1ILTZ0036,40.725,-89.4497,241.4,WASHINGTON 2.0 NNW,US,Washington,2.5877873089438994
US1ILTZ0044,40.7219,-89.4598,245.1,WASHINGTON 2.1 NW,US,Washington,2.8740045622513666
US1ILWF0004,40.7632,-89.4519,242.0,GERMANTOWN HILLS 0.9 ESE,US,Washington,6.644967035129304
US1ILWF0012,40.7846,-89.4822,219.2,GERMANTOWN HILLS 1.3 NW,US,Washington,9.738089678617095
US1ILWF0014,40.8092,-89.0546,219.8,EL PASO 5.2 NNW,US,El Paso,8.227938401103033
US1ILWF0018,40.6712,-89.0926,229.8,EL PASO 6.2 SW,US,El Paso,9.929981151638152
US1ILWF0020,40.7421,-89.1364,226.5,SECOR 0.1 NNW,US,El Paso,9.951326172503554
US1ILWF0021,40.7426,-89.0246,228.6,EL PASO 0.6 WNW,US,El Paso,0.5798585334585764
US1ILWF0028,40.7668,-89.5093,195.7,EAST PEORIA 6.9 NNE,US,Washington,9.352749377197952
US1INCR0002,40.6775,-86.5102,221.9,CAMDEN 4.9 NNE,US,Camden,7.904978954688963
US1INCR0006,40.5402,-86.5227,217.6,(K9EFY)FLORA 0.3 S,US,Camden,7.874577319004944
US1INCR0012,40.5895,-86.4668,201.5,CAMDEN 4.0 ESE,US,Camden,6.519877680338767
US1INCR0014,40.5442,-86.5111,213.4,FLORA 0.6 E,US,Camden,7.681313780216176
US1INDV0001,38.6754,-87.19,145.1,WASHINGTON 1.5 NW,US,Washington,3.2690632826896797
US1INDV0002,38.5796,-87.1417,141.1,WASHINGTON 5.7 SSE,US,Washington,8.913519803439797
US1INDV0004,38.6629,-87.1548,175.0,WASHINGTON 1.0 ENE,US,Washington,0.6066403651546108
US1INDV0006,38.6217,-87.1829,143.0,WASHINGTON 2.6 SSW,US,Washington,4.594369033985796
US1INDV0007,38.5766,-87.1481,139.9,WASHINGTON 5.8 SSE,US,Washington,9.16793060103786
US1INDV0008,38.6588,-87.1634,166.1,WASHINGTON 0.5 E,US,Washington,0.374030696534593
US1INDV0011,38.6636,-87.0452,159.1,MONTGOMERY 0.1 SE,US,Washington,9.905219799045454
US1INDV0017,38.6205,-87.1359,149.0,WASHINGTON 3.3 SE,US,Washington,4.691306886163853
US1INDV0021,38.6646,-87.0469,170.7,MONTGOMERY 0.0 SSE,US,Washington,9.764748784284771
US1INHN0001,39.7423,-85.8983,253.0,NEW PALESTINE 1.5 NNW,US,Philadelphia,6.266684593582779
US1INHN0002,39.791,-85.816,266.1,GREENFIELD 2.4 W,US,Philadelphia,2.7373822786471185
US1INHN0003,39.7006,-85.895,246.0,NEW PALESTINE 1.4 S,US,Philadelphia,9.931520986621594
US1INHN0007,39.7497,-85.9182,256.9,NEW PALESTINE 2.4 NW,US,Philadelphia,7.143967194197142
US1INHN0010,39.7129,-85.9045,249.9,NEW PALESTINE 0.9 SW,US,Philadelphia,9.135663351296976
US1INHN0012,39.7879,-85.7752,274.9,GREENFIELD 0.4 SW,US,Philadelphia,6.050340634802302
US1INHN0013,39.7836,-85.9389,262.1,CUMBERLAND 0.7 E,US,Philadelphia,7.984868016787279
US1INHN0017,39.7921,-85.7713,271.0,GREENFIELD 0.1 SW,US,Philadelphia,6.45074224400657
US1INHN0026,39.7713,-85.7739,272.2,GREENFIELD 1.5 S,US,Philadelphia,6.22104769298624
US1INHN0027,39.7688,-85.8773,253.6,NEW PALESTINE 3.4 NNE,US,Philadelphia,3.057529495881788
US1INHN0032,39.7237,-85.935,254.2,NEW PALESTINE 2.3 W,US,Philadelphia,9.985241817758403
US1INHN0037,39.7321,-85.9094,250.9,NEW PALESTINE 1.2 NW,US,Philadelphia,7.738778982711456
US1INHN0043,39.7694,-85.77,270.7,GREENFIELD 1.6 S,US,Philadelphia,6.588741730945827
US1INHN0048,39.7952,-85.926,261.8,GREENFIELD 8.3 W,US,Philadelphia,7.047311971484456
US1INLK0008,41.5865,-87.5243,185.9,HAMMOND 3.0 SW,US,Phoenix,9.291841312842932
US1INLP0006,41.7264,-86.8843,189.9,MICHIGAN CITY 1.0 NNW,US,Long Beach,3.279378336756128
US1INLP0014,41.6942,-86.8831,196.0,MICHIGAN CITY 1.3 SSW,US,Long Beach,6.055687448104575
US1INLP0020,41.7411,-86.8634,185.0,LONG BEACH 0.7 WSW,US,Long Beach,0.9747775548425628
US1INLP0023,41.6977,-86.8865,195.1,MICHIGAN CITY 1.2 SSW,US,Long Beach,5.8384253726978415
US1INLP0027,41.7046,-86.8785,195.1,MICHIGAN CITY 0.6 SSW,US,Long Beach,4.848726934887749
US1INLP0032,41.671,-86.8102,228.9,TRAIL CREEK 3.0 SE,US,Long Beach,8.779982857356723
US1INLP0059,41.6806,-86.8386,194.5,MICHIGAN CITY 2.9 SE,US,Long Beach,7.083361676015925
US1INLP0065,41.7094,-86.864,187.8,(KD9LWR) TRAIL CREEK 1.0,US,Long Beach,3.918241905619079
US1INLP0076,41.6691,-86.827,205.7,MICHIGAN CITY 3.9 SE,US,Long Beach,8.531268549006533
US1INMR0212,39.7886,-85.9545,260.3,INDIANAPOLIS 10.2 E,US,Philadelphia,9.348162362858984
US1INWN0002,39.8207,-84.8727,315.2,RICHMOND 0.9 SE,US,Boston,9.02029978166834
US1INWN0018,39.8039,-84.8167,338.0,RICHMOND 4.1 ESE,US,Boston,7.586505559816887
US1INWN0020,39.8121,-84.8836,317.0,RICHMOND 1.2 S,US,Boston,8.341747993245148
US1INWN0025,39.8236,-84.8408,338.9,RICHMOND 2.4 E,US,Boston,9.209682189465514
US1KSJO0080,39.042,-94.7785,282.9,LAKE QUIVIRA 0.6 W,US,Kansas City,9.531038417987952
US1KSWS0009,39.8196,-97.0487,398.4,WASHINGTON 0.3 NE,US,Washington,0.4003017359202168
US1KSWS0017,39.7829,-97.0217,412.7,WASHINGTON 2.9 SE,US,Washington,4.343604718438213
US1KSWY0005,39.0894,-94.7362,238.4,KANSAS CITY 2.1 SSW,US,Kansas City,3.855620962616628
US1KSWY0007,39.1175,-94.6514,274.0,KANSAS CITY 4.1 E,US,Kansas City,8.04195661656584
US1KSWY0011,39.1469,-94.8114,295.0,KANSAS CITY WEST,US,Kansas City,6.345343457022802
US1KSWY0013,39.1144,-94.6661,310.6,KANSAS CITY 3.3 E,US,Kansas City,6.821716783342514
US1KYHD0020,37.7518,-85.7413,240.5,ELIZABETHTOWN 7.9 ENE,US,Boston,6.4216472969551806
US1KYHD0030,37.7653,-85.7104,134.1,LEBANON JUNCTION 4.8 S,US,Boston,3.3374381663868484
US1LAEB0002,30.4218,-91.1576,21.0,BATON ROUGE 2.7 SW,US,Baton Rouge,3.3912143049149424
US1LAEB0005,30.3657,-91.1168,17.1,GARDERE 1.2 ENE,US,Baton Rouge,8.594299090677856
US1LAEB0014,30.4393,-91.0685,18.0,BATON ROUGE 3.5 E,US,Baton Rouge,6.008791593034146
US1LAEB0020,30.4438,-91.0561,21.9,MONTICELLO 3.0 SSW,US,Baton Rouge,7.192659207854157
US1LAEB0027,30.4507,-91.0843,25.0,BATON ROUGE 2.5 E,US,Baton Rouge,4.589438398965289
US1LAEB0033,30.4118,-91.1786,21.9,LSU,US,Baton Rouge,5.658507208603203
US1LAEB0041,30.3876,-91.1372,9.1,BATON ROUGE 4.3 S,US,Baton Rouge,6.077220580890577
US1LAEB0046,30.4421,-91.149,14.0,BATON ROUGE 1.4 WSW,US,Baton Rouge,1.7160342447779586
US1LAEB0047,30.3818,-91.1373,12.5,BATON ROUGE 5.3 S,US,Baton Rouge,6.720286602532198
US1LAEB0053,30.4089,-91.1058,9.1,BATON ROUGE 3.0 SSE,US,Baton Rouge,4.408067261981546
US1LAEB0060,30.4005,-91.0896,9.4,BATON ROUGE 4.0 SSE,US,Baton Rouge,6.093365634402888
US1LAEB0065,30.3686,-91.08,11.0,BATON ROUGE 6.2 SSE,US,Baton Rouge,9.519938937832034
US1LAEB0069,30.3855,-91.1363,10.4,BATON ROUGE 4.4 S,US,Baton Rouge,6.30227123886884
US1LAEB0071,30.4069,-91.1552,11.9,BATON ROUGE 3.4 SSW,US,Baton Rouge,4.535711047117233
US1LAEB0072,30.4464,-91.1188,16.5,BATON ROUGE 0.5 ESE,US,Baton Rouge,1.2765992174429326
US1MAMD0011,42.3876,-71.1253,14.6,CAMBRIDGE 0.9 NNW,US,Boston,8.329696196483173
US1MAMD0043,42.3791,-71.0974,4.0,SOMERVILLE 0.8 SSE,US,Boston,6.779596631944825
US1MAMD0074,42.382,-71.0946,19.8,SOMERVILLE 0.7 SSE,US,Boston,7.0698468029786
US1MAMD0092,42.3218,-71.1838,70.1,NEWTON 1.4 ESE,US,Boston,8.11342733053042
US1MAMD0134,42.3829,-71.0994,6.1,SOMERVILLE 0.5 SSE,US,Boston,7.222484792437419
US1MAMD0151,42.3644,-71.1087,5.2,CAMBRIDGE 0.9 SSE,US,Boston,5.425892446941194
US1MAMD0170,42.3918,-71.1123,22.9,SOMERVILLE 0.5 W,US,Boston,8.417137268176344
US1MAMD0214,42.3766,-71.0998,3.4,SOMERVILLE 1.0 S,US,Boston,6.538104104397146
US1MAMD0231,42.3815,-71.1369,8.5,CAMBRIDGE 1.0 WNW,US,Boston,8.164445890622723
US1MANF0027,42.2455,-71.0276,14.6,QUINCY 1.5 SW,US,Boston,9.427934802121232
US1MANF0032,42.2524,-71.0396,16.8,QUINCY 1.8 WSW,US,Boston,8.281598025777745
US1MANF0054,42.259,-71.0303,30.5,QUINCY 1.2 W,US,Boston,8.037976164380193
US1MANF0065,42.2624,-71.08,11.0,MILTON 1.3 N,US,Boston,6.285963147658689
US1MASF0001,42.357,-71.0671,13.1,BOSTON 0.5 WSW,US,Boston,4.50064076074738
US1MASF0003,42.3131,-71.0998,24.1,JAMAICA PLAIN 1.3 NE,US,Boston,1.3574937220194647
US1MASF0004,42.3496,-71.1589,16.2,BRIGHTON 0.5 W,US,Boston,6.959097128609406
US1MASF0017,42.2886,-71.0496,2.7,DORCHESTER 1.8 ENE,US,Boston,4.455120186864301
US1MASF0030,42.378,-71.0627,13.7,CHARLESTOWN 0.4 SSE,US,Boston,6.837502797622185
US1MASF0031,42.2927,-71.1456,54.6,BOSTON 6.5 SW,US,Boston,5.752751384245483
US1MASF0038,42.2874,-71.1128,11.0,BOSTON 3.1 SW,US,Boston,4.164458435273661
US1MDCV0008,38.4666,-76.4795,-999.9,CALVERT BEACH 0.4N,US,Long Beach,1.2010369041577698
US1MDCV0023,38.4264,-76.4644,37.5,CALVERT BEACH-LONG BEACH,US,Long Beach,3.476009042761264
US1MDMG0042,38.9902,-77.0081,75.0,TAKOMA PARK 0.6 NNW,US,Washington,9.53357591387028
US1MDMG0070,38.9893,-77.0088,82.3,SILVER SPRING 1.9 SSE,US,Washington,9.42942378560879
US1MDPG0034,38.9533,-76.9546,18.0,HYATTSVILLE 0.4 S,US,Washington,7.5953266185977
US1MDPG0079,38.9689,-76.9526,26.2,HYATTSVILLE 0.7 N,US,Washington,9.017546388295116
US1MDPG0094,38.9479,-76.962,7.3,BRENTWOOD 0.4 NW,US,Washington,6.718516939665626
US1MIBN0001,41.792,-86.7519,184.1,NEW BUFFALO 0.4 WNW,US,Long Beach,9.90662563938118
US1MIHL0003,41.7557,-84.7591,306.9,CAMDEN 0.1 WSW,US,Camden,0.2528368049446418
US1MIHL0009,41.7517,-84.7895,326.7,MONTGOMERY 1.9 SSE,US,Camden,2.786615697100685
US1MIJC0013,42.107,-84.626,328.0,HANOVER 3.8 W,US,Concord,7.862553311830882
US1MNPP0002,45.6134,-95.5395,360.0,STARBUCK 0.3 WNW,US,Long Beach,9.50132085869081
US1MNPP0011,45.6508,-95.3397,424.6,GLENWOOD 1.2 E,US,Long Beach,6.995571229222863
US1MNPP0014,45.6181,-95.4961,353.9,GLENWOOD 6.8 WSW,US,Long Beach,6.321016711084717
US1MNPP0016,45.5947,-95.5283,351.1,STARBUCK 1.2 S,US,Long Beach,9.891817998142404
US1MNPP0022,45.592,-95.4781,357.8,STARBUCK 3.0 ESE,US,Long Beach,7.553961127948453
US1MNPP0023,45.6264,-95.533,398.4,STARBUCK 1.0 N,US,Long Beach,8.480579979439895
US1MOCY0003,39.1472,-94.5698,226.2,NORTH KANSAS CITY 0.6 NNW,US,Kansas City,2.9332256249966235
US1MOCY0010,39.2052,-94.5968,282.2,OAKWOOD PARK 1.3 W,US,Kansas City,9.771258586057304
US1MOFR0003,38.4713,-91.0167,210.0,UNION 1.6 N,US,Washington,8.918550416984456
US1MOFR0008,38.5361,-90.9926,166.4,WASHINGTON 1.6 SE,US,Washington,2.619961057692251
US1MOFR0010,38.5386,-90.9669,161.2,WASHINGTON 2.7 ESE,US,Washington,4.455161911147242
US1MOFR0015,38.4956,-90.9988,199.9,WASHINGTON 4.0 S,US,Washington,6.381342419929208
US1MOFR0018,38.5685,-91.0281,164.3,WASHINGTON 1.4 NW,US,Washington,2.189217627962936
US1MOFR0032,38.5586,-91.0161,170.7,WASHINGTON 0.4 NNW,US,Washington,0.7918269830225564
US1MOFR0033,38.5332,-90.958,161.2,WASHINGTON 3.3 ESE,US,Washington,5.390920472864144
US1MOFSA177,39.2733,-93.9603,249.0,RICHMOND 0.8 ESE,US,Camden,9.879646565741725
US1MOJC0018,39.0807,-94.5752,285.0,KANSAS CITY 3.1 SSW,US,Kansas City,5.126700777981621
US1MOJC0028,39.0692,-94.4871,264.9,KANSAS CITY 5.1 SE,US,Kansas City,8.383919816978482
US1MOJC0046,39.0804,-94.5677,276.1,KANSAS CITY 3.0 SSW,US,Kansas City,4.966500135269489
US1MOJC0052,39.1084,-94.5735,253.3,KANSAS CITY 1.5 SW,US,Kansas City,2.394485436859338
US1MOJC0071,39.1002,-94.4657,242.3,INDEPENDENCE 6.1 W,US,Kansas City,8.065780298164572
US1MOJF0018,38.428,-90.361,160.6,ARNOLD 0.5 E,US,Concord,9.312290856652517
US1MOJF0025,38.4763,-90.4516,175.0,FENTON 4.1 S,US,Concord,9.09418961148453
US1MOJF0036,38.4284,-90.3637,157.3,ARNOLD 0.3 E,US,Concord,9.27876148035006
US1MOSL0002,38.4651,-90.3136,182.0,OAKVILLE 1.5 N,US,Concord,6.432927573236379
US1MOSL0003,38.5791,-90.3402,167.9,WEBSTER GROVES 0.9 ESE,US,Concord,7.642357212681559
US1MOSL0004,38.558,-90.4248,183.5,KIRKWOOD 1.6 S,US,Concord,7.802149597299138
US1MOSL0022,38.4825,-90.3099,154.5,MEHLVILLE 1.3 SSE,US,Concord,5.2564148965376
US1MOSL0029,38.5553,-90.3417,179.8,AFFTON 0.8 WNW,US,Concord,5.036760283139745
US1MOSL0045,38.5586,-90.3874,191.4,CRESTWOOD 0.4 NW,US,Concord,5.8314290084829095
US1MOSL0048,38.5714,-90.2906,141.1,ST. LOUIS 6.3 SW (CLOSED),US,Concord,8.821583769287054
US1MOSL0054,38.5918,-90.3531,161.2,WEBSTER GROVES 0.4 N,US,Concord,8.914559330733455
US1MOSL0062,38.5011,-90.3612,184.4,CONCORD 1.0 SSW,US,Concord,1.2241676421057377
US1MOSL0063,38.514,-90.3661,170.7,CONCORD 0.7 W,US,Concord,0.7989936307500879
US1MOSL0074,38.5954,-90.3778,178.6,GLENDALE 0.3 NE,US,Concord,9.474563778290031
US1MOSL0076,38.4692,-90.3496,172.8,OAKVILLE 2.5 NW,US,Concord,4.774294881622624
US1MOSL0083,38.5885,-90.3907,197.5,GLENDALE 0.6 WSW,US,Concord,9.017396245549
US1MOSL0092,38.5869,-90.3811,188.7,GLENDALE 0.4 S,US,Concord,8.612110040173757
US1MOSL0094,38.5466,-90.3299,175.9,AFFTON 0.2 SSW,US,Concord,4.558747407578323
US1MOSL0099,38.5885,-90.3486,167.3,WEBSTER GROVES 0.4 ENE,US,Concord,8.573989870994952
US1MOSLC007,38.5805,-90.2851,149.4,ST. LOUIS 5.7 SW,US,Concord,9.902547891601506
US1MOSLC010,38.5779,-90.3119,134.1,MAC KENZIE 0.3 ESE,US,Concord,8.357273012464887
US1MOWR0008,38.6297,-91.0618,163.7,MARTHASVILLE 0.5 W,US,Washington,9.585077707650324
US1MSHR0010,30.3608,-89.2084,11.9,PASS CHRISTIAN 3.5 NE,US,Long Beach,4.154445269561271
US1MSHR0019,30.3911,-89.2503,15.5,PASS CHRISTIAN 5.0 N,US,Long Beach,8.840496712414831
US1MSHR0025,30.3476,-89.1534,6.4,LONG BEACH 1.3 SE,US,Long Beach,1.847884482687512
US1MSHR0027,30.3515,-89.1675,7.9,LONG BEACH 0.7 S,US,Long Beach,1.0594424934007969
US1MSHR0039,30.4437,-89.1265,17.1,GULFPORT 5.3 NW,US,Long Beach,9.933624900263196
US1MSHR0048,30.3541,-89.2173,6.7,PASS CHRISTIAN 2.8 NNE,US,Long Beach,5.063638468373793
US1MSNS0002,32.7339,-89.1696,153.9,PHILADELPHIA 4.5 SW,US,Philadelphia,6.461383483516851
US1MSNS0004,32.7861,-89.0178,149.0,PHILADELPHIA 5.4 E,US,Philadelphia,9.813850298662496
US1MSNS0005,32.8108,-89.1096,140.8,PHILADELPHIA 2.5 N,US,Philadelphia,4.031494770604971
US1MSNS0008,32.7597,-89.0921,137.8,PHILADELPHIA 1.4 SE,US,Philadelphia,3.345685262014422
US1NCBF0008,35.5046,-77.0547,8.5,CHOCOWINITY 2.6 ESE,US,Washington,6.004553312898412
US1NCBF0029,35.5428,-77.0587,1.2,WASHINGTON 1.0 SSW,US,Washington,1.797498740492862
US1NCBF0030,35.5411,-76.9993,10.1,WASHINGTON 3.1 ESE,US,Washington,5.359632513242673
US1NCBF0034,35.5141,-77.1024,10.4,CHOCOWINITY 0.2 W,US,Washington,6.577977928473741
US1NCCA0006,36.3317,-76.1829,1.8,CAMDEN 0.7 WNW,US,Camden,1.3749472077643548
US1NCCA0008,36.3301,-76.1741,1.8,CAMDEN 0.2 NW,US,Camden,0.6756473458196355
US1NCCB0002,35.3699,-80.5842,200.6,CONCORD 2.6 SSE,US,Concord,5.440291885690778
US1NCCB0006,35.404,-80.6068,208.2,CONCORD 0.7 WSW,US,Concord,2.976398421608171
US1NCCB0007,35.3104,-80.6656,204.2,HARRISBURG 0.8 S,US,Concord,9.578492824893456
US1NCCB0008,35.3647,-80.655,193.9,CONCORD 4.5 SW,US,Concord,3.5785913028446115
US1NCCB0010,35.3557,-80.6536,187.8,CONCORD 4.9 SW,US,Concord,4.446658551670295
US1NCCB0011,35.4018,-80.6346,209.1,CONCORD 2.3 W,US,Concord,0.967875452426498
US1NCCB0015,35.3955,-80.6059,227.1,CONCORD 1.0 SW,US,Concord,2.820603740013082
US1NCCB0023,35.4135,-80.564,206.0,CONCORD 1.8 ENE,US,Concord,6.978589537362243
US1NCCB0024,35.396,-80.6492,193.9,CONCORD 3.2 WSW,US,Concord,1.154637419699072
US1NCCB0026,35.4505,-80.564,193.2,CONCORD 3.4 NNE,US,Concord,9.17003709733216
US1NCCB0035,35.3813,-80.6253,191.1,CONCORD 2.5 SW,US,Concord,1.698898053938663
US1NCCB0038,35.4704,-80.6198,229.5,KANNAPOLIS 1.4 S,US,Concord,8.711995368025738
US1NCCB0039,35.4764,-80.631,231.3,KANNAPOLIS 1.2 SSW,US,Concord,9.255746345715451
US1NCCB0042,35.392,-80.7412,198.4,CONCORD 8.3 W,US,Concord,9.455517598323004
US1NCGS0002,35.2503,-81.1986,239.0,GASTONIA 1.5 W,US,Dallas,7.53974008456095
US1NCGS0006,35.2539,-81.1201,211.8,GASTONIA 3.9 ESE,US,Dallas,9.03710242787274
US1NCGS0007,35.2906,-81.1542,236.5,GASTONIA 2.5 NE,US,Dallas,3.922065319614912
US1NCGS0011,35.2511,-81.1848,235.0,GASTONIA 0.8 W,US,Dallas,7.318450145750182
US1NCGS0024,35.2421,-81.191,238.4,GASTONIA 1.3 WSW,US,Dallas,8.349021835169607
US1NCGS0026,35.2795,-81.1651,240.2,GASTONIA 1.9 N,US,Dallas,4.464705957151798
US1NCGS0030,35.37,-81.1371,244.8,DALLAS 4.4 NNE,US,Dallas,7.224596784503702
US1NCGS0036,35.3188,-81.1996,235.9,DALLAS 1.3 WNW,US,Dallas,1.5208693045920352
US1NCGS0049,35.2557,-81.1205,239.0,GASTONIA 2.9 E,US,Dallas,8.859519837506646
US1NCGS0053,35.2428,-81.1977,244.4,GASTONIA 1.6 WSW,US,Dallas,8.346892160202161
US1NCGS0058,35.3151,-81.2074,232.6,DALLAS 1.7 W,US,Dallas,2.2229000338568934
US1NCGS0066,35.2492,-81.1646,229.5,GASTONIA 0.5 ESE,US,Dallas,7.71094335833587
US1NCPS0001,36.3015,-76.2668,3.4,ELIZABETH CITY 2.6 W,US,Camden,9.058356240606823
US1NCPS0002,36.2887,-76.207,1.5,ELIZABETH CITY 0.9 ESE,US,Camden,5.223472245543321
US1NCPS0004,36.2842,-76.1941,1.8,ELIZABETH CITY 1.7 ESE,US,Camden,5.024538611811639
US1NCPS0011,36.27,-76.1868,2.4,ELIZABETH CITY 2.6 SE,US,Camden,6.298318923113476
US1NCPS0014,36.3032,-76.2655,3.4,ELIZABETH CITY 2.5 WNW,US,Camden,8.893429631391427
US1NCPS0017,36.3323,-76.2457,1.5,ELIZABETH CITY 2.9 NNW,US,Camden,6.829781370751013
US1NCPS0022,36.3399,-76.2511,2.4,ELIZABETH CITY 3.5 NNW,US,Camden,7.451293495477288
US1NCPS0023,36.2506,-76.1699,1.8,ELIZABETH CITY 4.2 SE,US,Camden,8.272907397592446
US1NCPS0029,36.2813,-76.195,2.1,ELIZABETH CITY 1.8 SE,US,Camden,5.35078421817679
US1NCPS0030,36.3032,-76.2334,1.8,ELIZABETH CITY 0.8 NW,US,Camden,6.17615705750814
US1NCPS0039,36.2986,-76.2392,2.1,ELIZABETH CITY 1.0 W,US,Camden,6.86022948593878
US1NEDG0035,41.3276,-96.1747,385.6,BENNINGTON 2.9 SSW,US,Washington,8.248194983798026
US1NEDG0043,41.3339,-96.1725,374.0,BENNINGTON 2.5 SSW,US,Washington,7.65853442564924
US1NEDG0054,41.3674,-96.1544,341.4,BENNINGTON 0.1 E,US,Washington,5.552426574911699
US1NEWS0015,41.4344,-96.1048,395.3,BLAIR 7.8 SSE,US,Washington,9.483811652942078
US1NEWS0019,41.4135,-96.1147,398.1,OMAHA 11.6 NNW,US,Washington,7.930888796377712
US1NHMR0004,43.1499,-71.5565,137.5,BOW 1.6 NW,US,Concord,8.965610521309019
US1NHMR0009,43.1848,-71.5186,70.7,CONCORD 3.8 SSE,US,Concord,6.067199329837543
US1NHMR0017,43.2101,-71.5512,113.1,CONCORD 1.6 SSE,US,Concord,2.3659799739749747
US1NHMR0020,43.1515,-71.5639,127.1,BOW 1.5 NW,US,Concord,8.791638559519129
US1NHMR0023,43.1574,-71.6211,107.6,BOW 4.1 WNW,US,Concord,9.53973412170032
US1NHMR0030,43.1854,-71.6184,160.6,HOPKINTON 2.9 E,US,Concord,6.923659864804234
US1NHMR0033,43.2862,-71.6043,110.3,BOSCAWEN 2.2 SE,US,Concord,7.177872510545439
US1NHMR0039,43.2624,-71.5744,106.1,PENACOOK 1.8 SE,US,Concord,3.746799491209088
US1NHMR0043,43.2845,-71.6067,119.8,BOSCAWEN 2.2 SSE,US,Concord,7.117892687468141
US1NHMR0044,43.1543,-71.5486,116.4,BOW 1.5 N,US,Concord,8.5190052141631
US1NHMR0055,43.3028,-71.5789,115.8,CANTERBURY 2.5 SSW,US,Concord,8.191413234812932
US1NHMR0071,43.2292,-71.5143,106.1,CONCORD 2.3 E,US,Concord,3.664863036021604
US1NJBT0071,40.0073,-75.0173,5.2,RIVERTON 0.3 SSW,US,Philadelphia,9.93102570658242
US1NJCN0001,39.9471,-75.0408,17.4,MERCHANTVILLE 0.5 ESE,US,Camden,5.799773113349758
US1NJCN0003,39.8894,-75.0813,9.8,AUDUBON 0.5 W,US,Camden,5.646465360046682
US1NJCN0019,39.8933,-75.0942,5.8,MOUNT EPHRAIM 0.9 N,US,Camden,4.888527103717486
US1NJCN0022,39.9231,-75.0649,5.2,COLLINGSWOOD 0.7 NE,US,Camden,3.8936388334305847
US1NJCN0024,39.8839,-75.0902,7.6,MOUNT EPHRAIM 0.2 NNE,US,Camden,5.98481362811049
US1NJCN0027,39.9616,-75.037,15.2,PENNSAUKEN TWP 1.1 ESE,US,Camden,6.629615934634727
US1NJCN0030,39.8977,-75.1224,7.3,GLOUCESTER CITY 0.5 NW,US,Camden,4.459855565006447
US1NJCN0031,39.8803,-75.0744,14.0,HADDON HEIGHTS 0.5 W,US,Camden,6.809753355101541
US1NJCN0034,39.8786,-75.0415,17.7,BARRINGTON 0.8 NE,US,Camden,8.507595822269232
US1NJCN0035,39.8753,-75.0876,10.4,MOUNT EPHRAIM 0.4 SSE,US,Camden,6.966350477443715
US1NJCN0036,39.8669,-75.0583,21.3,BARRINGTON 0.4 WSW,US,Camden,8.75667481354251
US1NJCN0037,39.9226,-75.0648,5.8,COLLINGSWOOD 0.7 NE,US,Camden,3.922508646983376
US1NJCN0039,39.9136,-75.0214,16.5,CHERRY HILL TWP 1.6 WNW,US,Camden,7.740510268513696
US1NJHN0043,40.7405,-74.9178,254.2,GLEN GARDNER 3.0 NNE,US,Washington,5.813788728126378
US1NJHN0045,40.714,-74.9634,159.1,HAMPTON 0.5 N,US,Washington,5.22443667483861
US1NJWR0012,40.7103,-74.9942,130.8,FRANKLIN TWP 2.9 E,US,Washington,5.471376194103722
US1NJWR0015,40.7052,-75.0081,121.9,FRANKLIN TWP 2.3 ESE,US,Washington,6.327927599112403
US1NJWR0017,40.8234,-74.9578,183.8,MANSFIELD TWP 2.6 WNW,US,Washington,7.488787245586578
US1NJWR0020,40.8014,-74.9978,152.1,OXFORD TWP 0.6 SSW,US,Washington,4.919686169884606
US1NJWR0021,40.7623,-74.9719,143.9,WASHINGTON 0.6 ENE,US,Washington,0.978411527919228
US1NJWR0023,40.7964,-75.0447,270.7,WHITE TWP 1.7 S,US,Washington,6.708469403648874
US1NJWR0032,40.7541,-74.9812,138.1,WASHINGTON 0.3 SSE,US,Washington,0.5230857102792966
US1NJWR0035,40.7385,-74.9579,127.1,WASHINGTON TWP 1.8 SE,US,Washington,3.056058153247008
US1NJWR0041,40.697,-75.0518,180.4,FRANKLIN TWP 1.2 S,US,Washington,9.009463313988318
US1NJWR0050,40.7374,-74.9443,116.4,WASHINGTON TWP 2.4 ESE,US,Washington,3.995603330005036
US1NJWR0051,40.8169,-75.0606,102.1,BELVIDERE 1.0 SE,US,Washington,9.22573079951255
US1NYKN0003,40.6194,-73.9859,7.9,BROOKLYN 2.4 SW,US,New York,9.789884463348894
US1NYKN0025,40.6846,-73.9867,5.5,BROOKLYN 3.1 NW,US,New York,5.321070409261112
US1NYKN0059,40.6597,-73.9828,51.8,BROOKLYN 2.4 WSW,US,New York,6.216330633161556
US1NYNS0014,40.6623,-73.678,7.0,LYNBROOK 0.3 NW,US,Long Beach,8.24637019971515
US1NYNS0035,40.6571,-73.6978,3.7,VALLEY STREAM 0.6 SE,US,Long Beach,8.065375920911102
US1NYNS0040,40.6435,-73.6095,4.6,BALDWIN 1.3 S,US,Long Beach,7.737810796720968
US1NYNS0041,40.6622,-73.6639,7.3,LYNBROOK 0.6 ENE,US,Long Beach,8.174748509908026
US1NYNS0074,40.6699,-73.6645,9.4,MALVERNE 0.5 SE,US,Long Beach,9.029915348610636
US1NYNS0077,40.6368,-73.6672,2.1,EAST ROCKAWAY 0.5 S,US,Long Beach,5.349435066645549
US1NYNY0078,40.7339,-73.9844,6.1,STUYVESANT SQUARE PARK -,US,New York,6.673659243502419
US1NYNY0082,40.7613,-73.9929,25.3,MATTHEWS PALMER PLAYGROUN,US,New York,9.39877121821266
US1NYOG0012,43.2,-76.26,115.8,CLAY 4.6 NW,US,Phoenix,4.5721548354723405
US1NYOG0045,43.1682,-76.2283,118.6,LIVERPOOL 4.4 NNW,US,Phoenix,8.938789915387753
US1NYOG0046,43.1951,-76.2883,118.9,BALDWINSVILLE 3.5 NE,US,Phoenix,4.107544105427583
US1NYOG0071,43.1888,-76.2519,132.9,LIVERPOOL 6.1 NNW,US,Phoenix,5.956611365215818
US1NYOG0072,43.1702,-76.2239,120.7,LIVERPOOL 4.5 N,US,Phoenix,8.992332828208461
US1NYOG0075,43.1897,-76.2861,121.0,BALDWINSVILLE 3.3 NE,US,Phoenix,4.729028807867758
US1NYQN0002,40.7145,-73.8819,32.3,MIDDLE VILLAGE 0.5 SW,US,New York,4.26421303747124
US1NYQN0026,40.7544,-73.8882,18.0,JACKSON HEIGHTS 0.3 WSW,US,New York,7.363751331203171
US1NYQN0033,40.6621,-73.8413,2.1,HOWARD BEACH 0.4 NNW,US,New York,7.906965405764861
US1NYQN0036,40.6719,-73.845,6.7,QUEENS 4.7 SW,US,New York,7.183006306108148
US1OHWS0009,39.2813,-81.5858,196.0,BELPRE 0.3 NE,US,Washington,8.29842787723832
US1OKMC0005,35.0131,-97.4898,354.8,PURCELL 6.7 W,US,Washington,5.02005399126694
US1OKMC0018,35.073,-97.3948,357.5,PURCELL 4.3 NNW,US,Washington,9.02502645798938
US1PAAL0011,40.3466,-79.9283,369.7,WEST MIFFLIN 1.3 SW,US,Boston,9.665459303916617
US1PAAL0104,40.3439,-79.9236,358.7,WEST MIFFLIN 1.2 SW,US,Boston,9.181367059758022
US1PAMT0008,40.0855,-75.18,129.8,WYNDMOOR 0.7 ENE,US,Philadelphia,9.499367244114516
US1PAMT0031,40.0291,-75.2366,15.8,BALA CYNWYD 1.15 NNW,US,Philadelphia,9.063598698568892
US1PAMT0081,40.0579,-75.0936,39.3,CHELTENHAM 0.2 S,US,Philadelphia,6.552183316379716
US1PAMT0088,40.0062,-75.236,100.6,BALA CYNWYD 0.8 SSW,US,Philadelphia,8.697617782974083
US1PAMT0089,40.0941,-75.1432,84.4,WYNCOTE 0.3 ENE,US,Philadelphia,9.639797698431952
US1PAMT0117,40.0932,-75.1277,93.3,JENKINTOWN 0.2 SSE,US,Philadelphia,9.521801589449876
US1PAMT0152,40.0799,-75.118,61.3,ELKINS PARK 0.8 NNE,US,Philadelphia,8.141568139981226
US1PAMT0159,40.0926,-75.1034,81.4,RYDAL 1.0 SSE,US,Philadelphia,9.790901649503006
US1PAPH0001,40.0732,-75.1596,104.9,WYNCOTE 1.5 SSW,US,Philadelphia,7.604775441938381
US1PAPH0002,40.0677,-75.0748,46.6,ROCKLEDGE 1.3 SE,US,Philadelphia,8.356208707859055
US1PAPH0004,40.0586,-75.077,45.4,PHILADELPHIA 4.7 NE,US,Philadelphia,7.449953992402443
US1PAPH0006,40.0455,-75.2222,58.5,WYNDMOOR 3.0 SSW,US,Philadelphia,8.613607830263943
US1PAPH0007,39.9738,-75.1237,4.3,PHILADELPHIA 2.4 SSE,US,Philadelphia,3.8683686012897818
US1PAPH0008,40.025,-75.18,73.5,PHILADELPHIA 2.7 WNW,US,Philadelphia,4.371837647163937
US1PAPH0012,40.0316,-75.1102,20.7,PHILADELPHIA 2.1 NE,US,Philadelphia,3.337021598338775
US1PAPH0030,40.0537,-75.1241,68.3,PHILADELPHIA 3.3 N,US,Philadelphia,5.182575800254231
US1PAPH0033,40.0227,-75.2106,80.8,PHILADELPHIA 4.2 WNW,US,Philadelphia,6.741461702773449
US1PAPH0034,39.956,-75.1516,9.4,PHILADELPHIA 3.6 SSW,US,Camden,4.376994274871335
US1PAWT0001,40.3243,-79.7556,310.9,NORTH IRWIN 2.5 WSW,US,Boston,5.933441361475218
US1SCKR0003,34.2947,-80.5509,87.5,CAMDEN 4.2 ENE,US,Camden,6.787683061090642
US1SCKR0008,34.2135,-80.7036,106.7,LUGOFF 1.6 WSW,US,Camden,9.951114254947637
US1SCKR0012,34.2261,-80.5793,52.7,CAMDEN 3.1 SE,US,Camden,4.38849556792718
US1SCKR0014,34.2544,-80.6967,80.8,LUGOFF 2.2 NNW,US,Camden,8.065370791047615
US1SCKR0017,34.2843,-80.6156,85.6,CAMDEN 2.7 NNW,US,Camden,3.09561121217647
US1SCKR0019,34.2268,-80.5756,59.4,CAMDEN 3.2 SE,US,Camden,4.550024838260965
US1SCKR0027,34.185,-80.5497,70.4,CAMDEN 6.4 SE,US,Camden,9.6862836928286
US1SCKR0029,34.2354,-80.6906,64.3,LUGOFF 0.9 NW,US,Camden,7.875580914251038
US1SCKR0035,34.2894,-80.5498,93.0,CAMDEN 4.0 ENE,US,Camden,6.524581230793376
US1SCKR0045,34.2427,-80.5524,70.7,CAMDEN 3.6 ESE,US,Camden,5.439844074375518
US1SCKR0048,34.2927,-80.6221,88.1,CAMDEN 2.2 NNW,US,Camden,4.148142150125608
US1SCKR0051,34.2917,-80.6082,75.6,CAMDEN 2.1 N,US,Camden,3.859164110251392
US1SCKR0054,34.27,-80.5925,71.6,CAMDEN 1.2 ENE,US,Camden,2.0949410067235066
US1SDGY0007,43.2294,-99.4342,662.9,GREGORY 0.5 WSW,US,Dallas,6.814240291333189
US1TNBN0001,36.1066,-88.0443,149.0,CAMDEN 4.5 NE,US,Camden,7.038387441205996
US1TNBN0006,36.0584,-88.0945,144.8,CAMDEN 0.7 SE,US,Camden,1.2697533120367532
US1TNLN0004,35.654,-84.3686,329.8,PHILADELPHIA 2.5 SE,US,Philadelphia,3.973001989049541
US1TXDA0001,32.7998,-96.7012,162.2,DALLAS 3.7 E,US,Dallas,6.162249850399633
US1TXDA0027,32.8041,-96.7863,150.9,DALLAS 1.4 WNW,US,Dallas,2.178388995084611
US1TXDA0048,32.8211,-96.7492,172.8,DALLAS 2.1 NNE,US,Dallas,3.4775865675799924
US1TXDA0053,32.8152,-96.8035,150.0,DALLAS 2.7 WNW,US,Dallas,4.201399325767438
US1TXDA0076,32.8075,-96.7591,164.6,DALLAS 1.0 NNE,US,Dallas,1.7111378121636471
US1TXDA0098,32.752,-96.8526,155.1,COCKRELL HILL 2.3 ENE,US,Dallas,9.26258343887132
US1TXDA0112,32.813,-96.6745,166.4,DALLAS 5.4 ENE,US,Dallas,8.885927208630658
US1TXWC0004,26.4828,-97.6874,6.7,RAYMONDVILLE 5.8 E,US,Los Angeles,9.921398511695688
US1TXWC0005,26.452,-97.7924,10.1,RAYMONDVILLE 2.0 SSW,US,Los Angeles,4.787960004104806
US1VAAC0006,37.673,-75.7975,0.0,ONANCOCK 3.9 SW,US,Boston,8.69403632161019
US1VAAC0015,37.5956,-75.8634,4.9,PAINTER 4.4 W,US,Boston,1.9656816565035669
US1VAAP0001,37.4083,-78.9638,219.5,CONCORD 4.6 NNE,US,Concord,7.568900190253583
US1VAAR0005,38.8554,-77.0698,41.5,ALEXANDRIA 2.4 NE,US,Washington,7.176183965481342
US1VAAR0006,38.8879,-77.1176,99.1,ARLINGTON 1.1 NW,US,Washington,8.963446901782643
US1VAAR0008,38.8791,-77.0967,82.0,ARLINGTON 0.3 E,US,Washington,7.518085758817556
US1VAAR0018,38.8719,-77.119,78.0,ARLINGTON 1.0 WSW,US,Washington,9.607937136744402
US1VACM0004,37.3567,-79.083,226.2,LYNCHBURG 6.7 ESE,US,Concord,8.699012651784695
US1VAFX0117,38.8404,-77.0819,23.2,ALEXANDRIA 1.4 N,US,Washington,9.130780969475328
US1VARP0002,38.68,-78.24,256.9,SPERRYVILLE 0.9 NE,US,Washington,7.827080108634363
US1VARP0004,38.7086,-78.2196,263.0,WASHINGTON 3.2 W,US,Washington,5.204101834432128
US1WIBR0011,45.2519,-91.7259,312.7,CHETEK 5.7 SW,US,Dallas,6.957920918282317
US1WIBR0012,45.3147,-91.8096,397.5,HILLSDALE 2.4 E,US,Dallas,6.192902629937136
US1WIBR0018,45.2495,-91.7243,311.8,CHETEK 5.8 SW,US,Dallas,7.117599370597099
US1WIBR0031,45.3274,-91.7688,362.1,CHETEK 5.7 W,US,Dallas,8.383920707603115
US1WIBR0032,45.3292,-91.7451,353.0,CAMERON 5.1 S,US,Dallas,9.48545567023371
US1WVWD0009,39.2667,-81.5617,187.5,PARKERSBURG 1.0 W,US,Washington,9.541334765508118
USC00010764,33.3936,-87.0067,132.6,BESSEMER 3 WSW,US,Concord,8.742848036563105
USC00011300,32.0333,-87.3167,34.1,CAMDEN 3 NNW,US,Camden,4.086058055690216
USC00011301,32.0289,-87.3167,71.6,CAMDEN 3 NW,US,Camden,3.6590081370540735
USC00031152,33.59,-92.8236,35.4,CAMDEN 1,US,Camden,3.3176731171884817
USC00031154,33.5833,-92.85,49.1,CAMDEN 2,US,Camden,1.8161551414660704
USC00072730,39.1467,-75.5056,9.1,DOVER,US,Camden,6.91876112338668
USC00086633,28.55,-81.35,34.1,ORLANDO WTP,US,Winter Park,5.466849840557144
USC00092198,33.1,-84.4333,253.0,CONCORD,US,Concord,1.0511045489815003
USC00099157,33.7264,-82.7058,189.0,WASHINGTON 2 ESE,US,Washington,3.5503558433487803
USC00110987,40.2258,-90.7642,169.2,BROOKLYN,US,Camden,8.142882157805031
USC00111430,39.7714,-90.3331,180.4,CHAPIN 4E,US,Concord,5.871551435066536
USC00111522,41.6667,-87.6167,179.8,CHICAGO CAL TREAT WKS,US,Phoenix,6.216034769211289
USC00111552,41.7,-87.6333,200.9,CHICAGO ROSELAND PUMP,US,Phoenix,9.809591569468012
USC00112620,40.7081,-89.4808,219.5,EAST PEORIA 6NE,US,Washington,3.959915872567196
USC00112781,40.7364,-89.0947,228.6,EL PASO 4 W,US,El Paso,6.452978236234271
USC00113395,40.7578,-89.4769,238.7,GERMANTOWN HILLS,US,Washington,6.894668806393811
USC00116708,40.7394,-89.4878,198.1,PEORIA PROVING GROUNDS,US,Washington,5.9318938385057045
USC00118990,40.6994,-89.4478,230.1,WASHINGTON 2 W,US,Washington,1.3194838324059397
USC00122931,40.5536,-86.5219,208.8,FLORA,US,Camden,6.428492825131988
USC00123527,39.7858,-85.7611,264.9,GREENFIELD,US,Philadelphia,7.228522496627595
USC00123532,39.7833,-85.7833,267.9,GREENFIELD HWY GARAGE,US,Philadelphia,5.319258827706893
USC00125604,41.7167,-86.85,183.2,MICHIGAN CITY,US,Long Beach,2.985115016014781
USC00125607,41.7,-86.8167,198.1,MICHIGAN CY PHILIPS AP,US,Long Beach,5.659346182986262
USC00127243,41.75,-84.8667,-999.9,RAY PO,US,Camden,9.183324006988572
USC00127357,39.7667,-84.8333,346.9,RICHMOND AIRPORT,US,Boston,3.242539904037617
USC00129253,38.6489,-87.1989,146.9,WASHINGTON 1 W,US,Washington,3.620468952949876
USC00138688,41.2825,-91.7078,209.4,WASHINGTON,US,Washington,2.1399961979482804
USC00140782,39.15,-94.7833,264.9,BETHEL 1 NW,US,Kansas City,4.471797799437225
USC00142380,39.1,-94.8333,292.6,EDWARDSVILLE 3 NNW,US,Kansas City,8.111184699165939
USC00144199,39.1469,-94.8114,295.0,KANSAS CITY W,US,Kansas City,6.345343457022802
USC00145572,39.1167,-94.7,228.9,MUNCIE SEWAGE PLT,US,Kansas City,3.895746805737301
USC00148578,39.8089,-97.055,397.8,WASHINGTON,US,Washington,0.9554285800650084
USC00150874,37.7667,-85.7,146.0,BOSTON 2 SW,US,Boston,2.557506001903295
USC00150875,37.7436,-85.7483,259.1,BOSTON 6 SW,US,Boston,7.450332532177425
USC00160548,30.4192,-91.1303,15.2,BATON ROUGE CONCORD,US,Baton Rouge,2.536404333915532
USC00160555,30.4292,-91.2069,6.1,BATON ROUGE,US,Baton Rouge,7.405177556201883
USC00160556,30.4,-91.15,16.8,BATON ROUGE SOUTHDOWNS,US,Baton Rouge,5.009482425644979
USC00160558,30.4494,-91.0478,16.8,BATON ROUGE SHERWOOD,US,Baton Rouge,8.027606514788323
USC00165620,30.3644,-91.1672,6.4,LSU BEN-HUR FARM,US,Baton Rouge,9.297380750572264
USC00167001,30.55,-92.0833,21.0,OPELOUSAS AP,US,Washington,7.581136872061828
USC00167448,30.4508,-91.2183,4.6,PORT ALLEN,US,Baton Rouge,8.41620388167109
USC00181135,38.95,-77.0167,78.9,BRIGHTWOOD DC,US,Washington,5.037249018316858
USC00181170,38.95,-77.1,78.9,BROOKDALE,US,Washington,8.820150289021509
USC00181180,38.9667,-76.9667,14.9,BROOKSIDE MANOR,US,Washington,8.119915756725472
USC00182325,38.9386,-77.1133,45.7,DALECARLIA RSVR,US,Washington,9.199262641449868
USC00186350,38.9133,-76.97,15.2,NATL ARBORETUM DC,US,Washington,4.118692587082309
USC00187615,38.9667,-76.9333,14.9,RIVERDALE,US,Washington,9.953163867597636
USC00188289,38.8333,-76.95,85.0,SILVER HILL OBSY,US,Washington,9.796889781493716
USC00188656,38.85,-76.9333,82.0,SUITLAND,US,Washington,9.413659414917609
USC00188715,38.9833,-77.0167,97.5,TAKOMA PARK # 1,US,Washington,8.739989695142082
USC00188720,38.9833,-77.0167,98.1,TAKOMA PARK BALT AVE,US,Washington,8.739989695142082
USC00188725,38.9833,-77.0,70.1,TAKOMA PARK MISS AVE,US,Washington,8.852875343515333
USC00189035,38.9333,-77.0167,70.1,US SOLDIERS HOME DC,US,Washington,3.18036317768764
USC00189674,38.9072,-77.0522,18.3,GEORGETOWN,US,Washington,3.1188203211964454
USC00190768,42.35,-71.0667,5.2,BOSTON,US,Boston,3.787921208749084
USC00191097,42.3833,-71.1167,18.0,CAMBRIDGE,US,Boston,7.624911098620283
USC00191099,42.3833,-71.1,2.4,"CAMBRIDGE ""B""",US,Boston,7.274462172621079
USC00191103,42.375,-71.1056,4.0,"CAMBRIDGE ""C""",US,Boston,6.4701334589007775
USC00191110,42.3667,-71.1,5.8,CAMBRIDGE MIT,US,Boston,5.463365577024901
USC00191447,42.3333,-71.15,36.9,CHESTNUT HILL,US,Boston,5.56580470649789
USC00191950,42.2833,-71.0667,15.2,DORCHESTER,US,Boston,4.230485504563979
USC00193890,42.3031,-71.1242,29.0,JAMAICA PLAIN,US,Boston,3.651310128722207
USC00194795,42.25,-71.1,30.5,MILTON,US,Boston,7.746485415624478
USC00196993,42.35,-71.0667,32.6,ROXBURY,US,Boston,3.787921208749084
USC00198470,42.3167,-71.0,-999.9,THOMPSON'S ISLAND,US,Boston,7.0090377295805215
USC00201221,41.7333,-84.7667,368.8,CAMDEN,US,Camden,2.56536723076979
USC00201744,42.1667,-84.6333,-999.9,CONCORD,US,Concord,1.4640267128438853
USC00213173,45.6658,-95.3869,429.8,GLENWOOD 1N,US,Long Beach,3.716112624773528
USC00213174,45.6583,-95.4392,365.2,GLENWOOD 2WNW,US,Long Beach,1.1055593811198
USC00223671,30.3772,-89.1228,10.7,GULFPORT NAVAL CTR,US,Long Beach,4.449063104150433
USC00225165,30.3514,-89.1611,7.9,LONG BEACH,US,Long Beach,1.1134692293698722
USC00226894,32.7692,-89.1303,125.9,PHILA 1 WSW,US,Philadelphia,1.0846368010140794
USC00226899,32.7333,-89.1833,131.1,PHILADELPHIA 5 SW,US,Philadelphia,7.443322602874669
USC00233779,39.2333,-93.9333,210.0,HENRIETTA,US,Camden,8.643624377767711
USC00234272,38.5167,-90.2667,149.4,JEFFERSON BARRACKS,US,Concord,7.910904971233749
USC00234357,39.0667,-94.5667,320.0,KANSAS CITY KCMO,US,Kansas City,6.441666880896315
USC00234364,39.1,-94.5333,-999.9,KANSAS CY ST JOHN ELMW,US,Kansas City,3.1975233907755016
USC00234375,39.0583,-94.5119,228.9,KANSAS CITY STADIUM DRIVE,US,Kansas City,8.143105425563062
USC00235916,39.1331,-94.0639,207.3,NAPOLEON,US,Camden,8.127112537275028
USC00236524,39.1667,-94.6833,-999.9,PARKVILLE,US,Kansas City,7.123714034908207
USC00236665,39.8333,-91.7333,-999.9,PHILADELPHIA,US,Philadelphia,0.778329063666888
USC00236667,39.8333,-91.75,-999.9,PHILADELPHIA,US,Philadelphia,1.1075779802492836
USC00237116,39.2422,-93.97,213.4,RICHMOND 3S,US,Camden,6.642978651264635
USC00238746,38.5417,-90.975,148.4,WASHINGTON,US,Washington,3.678526389650672
USC00238791,38.5667,-90.3667,189.0,WEBSTER GROVES,US,Concord,6.168979215784725
USC00250777,41.3686,-96.095,370.3,BENNINGTON 3 E,US,Washington,9.916499486010972
USC00250781,41.3536,-96.2094,379.5,BENNINGTON 3WSW,US,Washington,4.895421974182761
USC00251849,42.3833,-96.9667,451.1,NE NEBRASKA EXP STN,US,Concord,1.832801687027749
USC00253652,42.3844,-96.9883,440.7,CONCORD,US,Concord,0.0799784513035646
USC00254655,42.4264,-97.0911,454.2,LAUREL,US,Concord,9.62328708018463
USC00256018,42.3803,-96.9578,445.0,NE NEBRASKA EXP STN,US,Concord,2.593716800831104
USC00270834,43.1667,-71.5167,66.1,BOW GARVINS FALLS,US,Concord,7.897122384994188
USC00271678,43.2167,-71.5167,66.1,CONCORD RIVER,US,Concord,3.7922491246313648
USC00271682,43.205,-71.535,82.3,CONCORD,US,Concord,3.4614221464389323
USC00280346,39.8833,-75.0833,11.9,AUDUBON,US,Camden,6.217719984930579
USC00281106,39.8833,-75.1167,9.1,BROOKLAWN,US,Camden,5.925582616668388
USC00281280,39.9167,-75.1167,4.3,CAMDEN,US,Camden,2.301287819031125
USC00281608,39.9,-75.0167,12.2,CHERRY HILL,US,Camden,8.707089296606473
USC00286863,39.95,-75.0667,18.0,PENNSAUKEN,US,Camden,3.790622753520769
USC00286864,39.9661,-75.0219,14.0,PENNSAUKEN 1N,US,Camden,8.007525144251161
USC00300379,43.15,-76.3333,115.5,BALDWINSVILLE,US,Phoenix,9.56156588802015
USC00300870,43.2386,-76.1964,114.9,BREWERTON LOCK 23,US,Phoenix,8.114211922615304
USC00300958,40.6892,-73.955,15.2,BROOKLYN,US,New York,2.600355205583938
USC00302868,40.7667,-73.8667,18.3,FLUSHING,US,New York,9.426583703476144
USC00304632,40.7333,-73.9333,3.0,LAUREL HILL,US,New York,4.394013250156567
USC00305804,40.7333,-73.9333,3.0,NEW YORK LAUREL HILL,US,New York,4.394013250156567
USC00305816,40.7106,-74.0142,25.3,WORLD TRADE CTR,US,New York,7.742897571194324
USC00306138,40.6328,-73.6269,3.7,OCEANSIDE,US,Long Beach,5.911006118624278
USC00309580,40.7103,-74.0142,12.2,WORLD TRADE CTR,US,New York,7.735173423722712
USC00311770,35.5186,-77.1531,12.2,CHOCOWINITY,US,Washington,9.968775457964492
USC00311975,35.4136,-80.5639,204.2,CONCORD,US,Concord,6.990749860284992
USC00312719,36.3097,-76.205,2.4,ELIZABETH CITY,US,Camden,3.567604714611794
USC00313356,35.2672,-81.1436,213.4,GASTONIA,US,Dallas,6.5824107671913135
USC00319100,35.5525,-77.0722,3.0,WASHINGTON WWTP 4W,US,Washington,1.7389348323414553
USC00333345,39.65,-84.65,152.4,GREEN,US,Camden,1.496512777970694
USC00334830,38.7094,-83.5186,164.6,MANCHESTER 5 ENE,US,Concord,3.377411194650899
USC00349346,34.9822,-97.5211,344.7,WASHINGTON 6SSW MESONET,US,Washington,8.848411003508115
USC00360861,40.3917,-79.8594,222.5,BRADDOCK LOCK 2,US,Boston,9.36435270943602
USC00361209,40.25,-80.2,289.6,CANONSBURG,US,Washington,9.317699522119645
USC00361461,40.3,-79.8667,310.9,CLAIRTON,US,Boston,3.8827634631661816
USC00362236,39.95,-75.1833,9.1,DREXEL UNIV,US,Camden,6.660899664829634
USC00365573,40.3392,-79.8603,225.6,MCKEESPORT,US,Boston,4.332925271253361
USC00366878,39.9606,-75.1425,4.9,PHILA CTR CITY,US,Camden,4.052819834767854
USC00366879,39.95,-75.1833,9.1,PHILADELPHIA DREXEL UN,US,Camden,6.660899664829634
USC00366884,39.9667,-75.1667,31.1,PHILADELPHIA FRANKLIN,US,Philadelphia,5.347268435275038
USC00366886,39.9586,-75.1728,18.3,PHILA FRANKLIN INST,US,Camden,6.1185039326595465
USC00366888,39.95,-75.15,64.0,PHILADELPHIA WSFO,US,Camden,3.954765857971926
USC00366894,39.8833,-75.1667,4.6,PHILADELPHIA NAVY YARD,US,Camden,7.754872345562721
USC00366899,39.9167,-75.2,9.1,PHILADELPHIA POINT BRE,US,Camden,8.19377405729539
USC00366901,40.0167,-75.1667,45.7,PHILA GERMANTOWN,US,Philadelphia,2.9672657537521263
USC00366910,39.95,-75.1833,6.1,PHILADELPHIA 23D & MAR,US,Camden,6.660899664829634
USC00366914,40.0,-75.1833,36.6,PHILA CENTENNIAL AVE,US,Philadelphia,4.2938961503911575
USC00368699,40.2333,-79.8,223.4,SUTERSVILLE,US,Boston,8.979063388486855
USC00369312,40.1833,-80.2333,350.5,WASHINGTON,US,Washington,1.5179339779432872
USC00369318,40.1789,-80.1889,396.2,WASHINGTON 3 NE,US,Washington,4.922697365392211
USC00381310,34.2428,-80.6564,42.7,CAMDEN 3 W,US,Camden,4.63396602150329
USC00385362,34.2492,-80.6697,57.9,LUGOFF 2NE,US,Camden,5.645904728254213
USC00393452,43.2356,-99.4342,658.4,GREGORY,US,Dallas,6.75287520905721
USC00401352,36.0519,-88.0831,128.9,CAMDEN,US,Camden,2.5167163854721144
USC00404673,36.0,-88.0333,128.0,JOHNSONVILLE,US,Camden,9.776014424677363
USC00405451,35.7333,-84.3333,244.1,LOUDON 1 E,US,Philadelphia,8.513746129534296
USC00412228,32.8167,-96.7167,150.9,DALLAS ARBORETUM,US,Dallas,5.33784037272255
USC00412243,32.7744,-96.8214,112.5,DALLAS,US,Dallas,5.537061798446025
USC00412247,32.7667,-96.7833,146.0,DALLAS WFAA,US,Dallas,3.3598990410419964
USC00417458,26.4644,-97.7847,9.4,RAYMONDVILLE,US,Los Angeles,3.372512397889301
USC00440449,38.8667,-77.1,57.9,BARCROFT,US,Washington,8.386774541817312
USC00441729,38.9,-77.0833,67.1,CLARENDON LYON PARK,US,Washington,5.821273097687514
USC00441955,37.2819,-78.9592,248.4,CONCORD 4 SSW,US,Concord,7.159463737865662
USC00446475,37.5844,-75.8217,9.1,PAINTER 2 W,US,Boston,2.908370510090448
USC00447985,38.6553,-78.2272,228.6,SPERRYVILLE,US,Washington,8.61723570050712
USC00448902,38.6667,-78.1833,195.1,WASHINGTON 3 SSW,US,Washington,5.455025212069708
USC00448938,38.8833,-77.1167,103.9,WAVERLY HILLS,US,Washington,9.008961067096909
USC00462590,39.2,-81.6167,781.2,EAST BANK,US,Washington,6.439876866535821
USC00469309,39.25,-81.7,182.9,WASHINGTON DAM 19,US,Washington,2.897111370980922
USC00477174,45.2142,-91.8878,329.2,RIDGELAND 1NNE,US,Dallas,7.6248557047198116
USR0000GWAS,33.7806,-82.8161,180.7,WASHINGTON GEORGIA,US,Washington,8.445039753938893
USR0000TCAM,36.0661,-88.1686,156.1,CAMDEN TOWER TENNESSEE,US,Camden,5.743567246246806
USW00000373,33.6169,-92.7669,40.2,HARRELL FIELD AP,US,Camden,9.229032223960138
USW00004827,40.1333,-80.2833,361.2,WASHINGTON CO AP,US,Washington,5.5103354775960405
USW00012824,28.55,-81.3333,34.1,ORLANDO AAF,US,Winter Park,5.54063207766511
USW00012841,28.5467,-81.3356,31.7,ORLANDO EXECUTIVE AP,US,Winter Park,5.864814962013622
USW00013707,39.1333,-75.4667,7.0,DOVER AFB,US,Camden,8.681683334924605
USW00013710,38.8333,-77.0167,18.0,WASHINGTON DC BOLLING FLD,US,Washington,7.939393286271321
USW00013743,38.8472,-77.0344,4.0,WASHINGTON REAGAN NATL AP,US,Washington,6.582894995457293
USW00013751,38.85,-77.0333,15.8,ANACOSTIA NAS,US,Washington,6.257852548427805
USW00013771,39.8833,-75.1667,6.1,PHILADELPHIA NAAS,US,Camden,7.754872345562721
USW00013774,36.25,-76.1333,7.0,WEEKSVILLE NAF,US,Camden,8.964899216657166
USW00013779,39.95,-75.15,7.9,PHILADELPHIA CITY,US,Camden,3.954765857971926
USW00013786,36.2578,-76.1717,1.8,ELIZABETH CITY CGAS,US,Camden,7.473852268538942
USW00013832,30.3667,-89.0833,0.9,GULFPORT LAS,US,Long Beach,7.875487694570259
USW00013960,32.8383,-96.8358,147.5,DALLAS FAA AP,US,Dallas,8.155589015386212
USW00013988,39.1278,-94.5892,226.2,KANSAS CITY DWTN AP,US,Kansas City,3.060250209709396
USW00014739,42.3606,-71.0097,3.4,BOSTON,US,Boston,7.753127450029162
USW00014745,43.205,-71.5025,103.0,CONCORD ASOS,US,Concord,5.419824222766484
USW00014762,40.355,-79.9214,379.2,PITTSBURGH ALLEGHENY CO A,US,Boston,9.562526991266123
USW00014789,42.2667,-71.0333,4.9,SQUANTUM NAS,US,Boston,7.196210127170665
USW00093725,38.9053,-77.0525,34.1,WASHINGTON,US,Washington,3.133117973775673
USW00093874,30.4122,-89.0808,4.9,GULFPORT - BILOXI AP,US,Long Beach,9.90206297906673
USW00093928,32.7667,-96.7833,195.1,DALLAS WBO,US,Dallas,3.3598990410419964
USW00093972,39.1,-94.5833,294.1,KANSAS CITY,US,Kansas City,3.6538446085070855
USW00094701,42.35,-71.0667,6.1,BOSTON CITY WSO,US,Boston,3.787921208749084
USW00094789,40.6392,-73.7639,2.7,JFK INTL AP,US,Long Beach,9.991027582340871
